HST                     
1 20580U 90037B   22007.43807087  .00000744  00000+0  33764-4 0  9993
2 20580  28.4689 155.1290 0002840  98.6931 299.4647 15.09926796541855
POLAR                   
1 23802U 96013A   22005.52383176  .00000243  00000+0  00000+0 0  9995
2 23802  78.7319 243.2628 5886065 264.4082  29.9560  1.29846863123771
SWAS                    
1 25560U 98071A   22007.47551566  .00000349  00000+0  40976-4 0  9998
2 25560  69.8989  31.6076 0009858 222.8623 137.1766 14.94286706253971
CXO                     
1 25867U 99040B   22009.38118769  .00000203  00000+0  00000+0 0  9999
2 25867  49.7840 245.4609 8624780 229.0160   0.3691  0.37804421 22357
XMM-NEWTON              
1 25989U 99066A   22008.94778835 -.00000096  00000+0  00000+0 0  9990
2 25989  70.4654 307.7726 6268034  88.4378   0.3624  0.50132585 14885
TERRA                   
1 25994U 99068A   22007.51606694  .00000101  00000+0  32438-4 0  9994
2 25994  98.1567  82.9849 0001396  95.3940 323.2976 14.57143784173069
CLUSTER II-FM7 (SAMBA)  
1 26410U 00041A   22008.28582031  .00000452  00000+0  00000+0 0  9998
2 26410 133.5392 346.2673 5303738 196.2973 359.2941  0.44206014 13118
CLUSTER II-FM6 (SALSA)  
1 26411U 00041B   22008.27759698  .00000617  00000+0  00000+0 0  9996
2 26411 135.0434 348.8863 6895333 200.8480 359.2461  0.44216939 13153
CLUSTER II-FM5 (RUMBA)  
1 26463U 00045A   22008.28147173  .00000665  00000+0  00000+0 0  9990
2 26463 138.6416 349.0771 6426289 201.4558 359.2741  0.44216787 13043
CLUSTER II-FM8 (TANGO)  
1 26464U 00045B   22008.28465123  .00000451  00000+0  00000+0 0  9992
2 26464 133.5242 346.2569 5300043 196.2765 359.3162  0.44217900 13123
ODIN                    
1 26702U 01007A   22007.55811811  .00000529  00000+0  37435-4 0  9997
2 26702  97.5290  25.3001 0011947 117.3989 242.8457 15.08925318142003
TIMED                   
1 26998U 01055B   22007.34536690  .00000155  00000+0  20766-4 0  9997
2 26998  74.0717 240.5344 0001565 220.2808 139.8257 14.88422297 89035
RHESSI                  
1 27370U 02004A   22007.10325475  .00004958  00000+0  13514-3 0  9995
2 27370  38.0326 283.9146 0012680 305.6027  54.3564 15.37491724101727
INTEGRAL                
1 27540U 02048A   22007.50666222  .00000385  00000+0  00000+0 0  9996
2 27540  70.5168  69.9114 8964440 299.8263 326.0396  0.37586195 20545
CORIOLIS                
1 27640U 03001A   22007.56985160  .00000003  00000+0  22169-4 0  9990
2 27640  98.7201  19.1232 0013872 196.4807 273.8367 14.19096541984155
SORCE                   
1 27651U 03004A   22007.50261777  .00000260  00000+0  40921-4 0  9991
2 27651  39.9968  35.8615 0022193  60.4926 299.8073 14.89498363 29069
MOST                    
1 27843U 03031D   22007.56455599 -.00000012  00000+0  14894-4 0  9993
2 27843  98.7089  17.5273 0008990 250.2926 109.7281 14.20656365960409
SCISAT 1                
1 27858U 03036A   22007.49422438  .00000110  00000+0  20431-4 0  9994
2 27858  73.9327 141.8491 0008752 224.8987 135.1480 14.77414510991659
SWIFT                   
1 28485U 04047A   22007.30544487  .00001498  00000+0  70656-4 0  9997
2 28485  20.5581   0.7034 0011021  57.7944 302.3557 15.05423108939224
CLOUDSAT                
1 29107U 06016A   22007.52626128  .00000076  00000+0  24490-4 0  9990
2 29107  98.3075 326.4097 0004293  86.4304 273.7389 14.62764092835508
CALIPSO                 
1 29108U 06016B   22007.51790195  .00000243  00000+0  57181-4 0  9995
2 29108  98.3044 326.0443 0001213  85.7606 274.3734 14.62674988835495
HINODE (SOLAR-B)        
1 29479U 06041A   22007.56535427  .00000161  00000+0  39326-4 0  9994
2 29479  98.1288  24.7224 0019357  16.3704 343.8120 14.64649642817201
SJ-6C                   
1 29505U 06046A   22007.46816882  .00000791  00000+0  76770-4 0  9998
2 29505  97.7887  29.5193 0003297 312.6148  47.4801 14.95435154828636
SJ-6D                   
1 29506U 06046B   22007.45252419 -.00000094  00000+0 -34764-5 0  9994
2 29506  97.8083  29.7190 0003122  55.8668 304.2869 14.93701835828105
AGILE                   
1 31135U 07013A   22005.66753152  .00004246  00000+0  87350-4 0  9990
2 31135   2.4682  72.4284 0010618  53.2127 306.8901 15.34890993451873
AIM                     
1 31304U 07015A   22007.51724543  .00001858  00000+0  10230-3 0  9996
2 31304  97.8596 281.0206 0004288 191.9576 168.1554 15.15364277806809
FGRST (GLAST)           
1 33053U 08029A   22007.59318790  .00000663  00000+0  20889-4 0  9991
2 33053  25.5811 183.6389 0012478 115.8250 244.3573 15.11729117749328
WISE                    
1 36119U 09071A   22007.57810036  .00001709  00000+0  58232-4 0  9998
2 36119  97.2613  45.2499 0003489 129.4367 230.7184 15.31736979670862
SDO                     
1 36395U 10005A   22007.30268969 -.00000079  00000+0  00000+0 0  9991
2 36395  31.3482 111.8480 0001900 225.2049 136.7138  1.00269186 43803
CRYOSAT 2               
1 36508U 10013A   22007.60185547  .00000115  00000+0  27676-4 0  9992
2 36508  92.0257 245.1341 0008075  78.9035 281.3080 14.51902451622791
X-SAT                   
1 37389U 11015C   22007.57784035  .00000023  00000+0  27477-4 0  9993
2 37389  98.3575  48.8382 0015313  65.8597 294.4185 14.24398023557304
GCOM-W1 (SHIZUKU)       
1 38337U 12025A   22007.41139956  .00000112  00000+0  35031-4 0  9992
2 38337  98.2315 310.3610 0001460  51.7684  59.1086 14.57124188512862
NUSTAR                  
1 38358U 12031A   22005.02552062  .00001326  00000+0  64028-4 0  9990
2 38358   6.0264 112.2299 0011258 141.4911 218.6022 14.88770471520455
NEOSSAT                 
1 39089U 13009D   22007.55838777  .00000045  00000+0  30920-4 0  9999
2 39089  98.4273 207.8044 0012024  40.7737 319.4346 14.34606928464148
BRITE-AUSTRIA           
1 39091U 13009F   22007.52172974  .00000024  00000+0  23367-4 0  9993
2 39091  98.4116 208.9110 0011257  42.3735 317.8318 14.35220094464346
IRIS                    
1 39197U 13033A   22007.50966922  .00000269  00000+0  43432-4 0  9995
2 39197  97.9647 194.8202 0027353 187.0898 172.9930 14.78983493460186
HISAKI (SPRINT-A)       
1 39253U 13049A   22007.42442580  .00000061  00000+0 -74279-5 0  9990
2 39253  29.7179 183.0507 0137092 192.4023 167.3153 13.55256898411246
CASSIOPE                
1 39265U 13055A   22007.56091837  .00003759  00000+0  10079-3 0  9992
2 39265  80.9659  77.4380 0639352  73.7244 293.3260 14.34803765429234
STSAT-3                 
1 39422U 13066G   22007.54359898  .00000401  00000+0  46628-4 0  9992
2 39422  97.4716  21.4001 0024558  97.4787 262.9202 14.90094488441874
SWARM B                 
1 39451U 13067A   22007.52699196  .00000792  00000+0  32819-4 0  9991
2 39451  87.7516 109.5649 0002416 117.9871 242.1620 15.22340316436466
SWARM A                 
1 39452U 13067B   22007.50024425  .00002409  00000+0  47244-4 0  9992
2 39452  87.3598 283.2834 0002677  76.2138 283.9418 15.46760411457066
SWARM C                 
1 39453U 13067C   22007.50006078  .00002413  00000+0  47343-4 0  9992
2 39453  87.3450 283.0823 0002679  76.1779 283.9778 15.46739536457021
BRITE-CA1 (TORONTO)     
1 40020U 14033L   22007.43970583  .00000101  00000+0  25254-4 0  9990
2 40020  97.7562 174.8141 0088323  57.6112 303.3601 14.66830976404055
OCO 2                   
1 40059U 14035A   22007.52430537  .00000086  00000+0  29253-4 0  9999
2 40059  98.2325 311.2270 0001247  86.2569 273.8772 14.57110204399894
BRITE-PL2 (HEWELIUSZ)   
1 40119U 14049B   22007.49821265  .00000249  00000+0  35631-4 0  9997
2 40119  97.8865 104.8521 0018393  52.0829 308.2045 14.84793438400121
RESURS P2               
1 40360U 14087A   22007.47320662  .00002068  00000+0  63150-4 0  9998
2 40360  97.2194  95.7316 0008148 318.1098  98.1857 15.35006512393550
MMS 1                   
1 40482U 15011A   21358.38194444 -.00000655  00000+0  00000+0 0  9997
2 40482  33.4163 112.2155 8503628  41.9660 191.5586  0.28423532 12800
MMS 2                   
1 40483U 15011B   21358.38194444 -.00000655  00000+0  00000+0 0  9998
2 40483  33.4147 112.2190 8503016  41.9716 191.5346  0.28423512 12863
MMS 3                   
1 40484U 15011C   21358.38194444 -.00000656  00000+0  00000+0 0  9990
2 40484  33.4155 112.1940 8502988  41.9851 191.5540  0.28421281 12544
MMS 4                   
1 40485U 15011D   21358.38194444 -.00000655  00000+0  00000+0 0  9990
2 40485  33.4160 112.2158 8502213  41.9658 191.5563  0.28423511 12755
ASTROSAT                
1 40930U 15052A   22007.37389369  .00000820  00000+0  25893-4 0  9998
2 40930   5.9960 246.8258 0008293  32.9798 327.0847 14.76458398339306
DAMPE                   
1 41173U 15078A   22007.51099711  .00000295  00000+0  14999-4 0  9992
2 41173  97.3648   0.8973 0015205  51.3224  63.8397 15.24144422337066
PISAT                   
1 41784U 16059B   22007.57174055  .00000152  00000+0  38023-4 0  9997
2 41784  97.9405  57.0015 0030915 319.8564  40.0355 14.63720780282155
HXMT (HUIYAN)           
1 42758U 17034A   22007.47476112  .00000662  00000+0  53976-4 0  9991
2 42758  43.0154 152.9910 0008831 346.0634 120.4147 15.09560024251849
FLYING LAPTOP           
1 42831U 17042G   22007.52884379  .00000164  00000+0  21589-4 0  9998
2 42831  97.4406 231.1619 0013668 179.1932 180.9283 14.91458318244105
PICSAT                  
1 43132U 18004X   22007.45145098  .00003148  00000+0  12003-3 0  9997
2 43132  97.3906  85.1175 0008002 198.9123 161.1820 15.27407448221803
ZHANGZHENG-1 (CSES)     
1 43194U 18015C   22007.46921247  .00002968  00000+0  13645-3 0  9998
2 43194  97.5023 138.6991 0010707 284.4679 140.7381 15.21114991218156
ICON                    
1 44628U 19068A   22007.41897149  .00000811  00000+0  58092-4 0  9999
2 44628  26.9893 280.5171 0018762  35.1777 325.0017 14.92210410122480
SALSAT                  
1 46495U 20068K   22007.56775321  .00001265  00000+0  96350-4 0  9991
2 46495  97.7124 309.0834 0018283 101.6166 258.7111 15.03772544 70000
IXPE                    
1 49954U 21121A   22002.08362801  .00001566  00000+0  79871-4 0  9995
2 49954   0.2289 163.2462 0011389  10.1662 186.6022 14.90777066  3562
